{"type": "FeatureCollection", "features": [ {"type": "Feature", "properties": {"norad_id": 40315, "name": "COSMOS 2501 (702K)", "group": "gnss", "lat": 11.909521502753503, "lon": 11.16085425095302, "alt_km": 19088.385231936263, "timestamp": "2025-12-02T21:34:01.514062+00:00", "meta": {"OBJECT_NAME": "COSMOS 2501 (702K)", "OBJECT_ID": "2014-075A", "EPOCH": "2025-11-30T19:17:52.497312", "MEAN_MOTION": 2.13101305, "ECCENTRICITY": 0.00201676, "INCLINATION": 63.6137, "RA_OF_ASC_NODE": 197.2386, "ARG_OF_PERICENTER": 204.7979, "MEAN_ANOMALY": 155.1955, "EPHEMERIS_TYPE": 0, "CLASSIFICATION_TYPE": "U", "NORAD_CAT_ID": 40315, "ELEMENT_SET_NO": 999, "REV_AT_EPOCH": 8562, "BSTAR": 0, "MEAN_MOTION_DOT": 1e-06, "MEAN_MOTION_DDOT": 0}, "tle": {"line1": "1 40315U 14075A   25334.80407983  .00000100  00000+0  00000+0 0  9995", "line2": "2 40315  63.6137 197.2386 0020167 204.7979 155.1955  2.13101305 85629"}}, "geometry": {"type": "Point", "coordinates": [11.16085425095302, 11.909521502753503]}}, {"type": "Feature", "properties": {"norad_id": 40534, "name": "GPS BIIF-9  (PRN 26)", "group": "gnss", "lat": -18.967026593863807, "lon": 47.20121357677574, "alt_km": 20459.264111750846, "timestamp": "2025-12-02T21:34:01.514074+00:00", "meta": {"OBJECT_NAME": "GPS BIIF-9  (PRN 26)", "OBJECT_ID": "2015-013A", "EPOCH": "2025-12-01T02:55:38.238240", "MEAN_MOTION": 2.00563184, "ECCENTRICITY": 0.01065399, "INCLINATION": 53.1998, "RA_OF_ASC_NODE": 212.3715, "ARG_OF_PERICENTER": 38.192, "MEAN_ANOMALY": 322.6465, "EPHEMERIS_TYPE": 0, "CLASSIFICATION_TYPE": "U", "NORAD_CAT_ID": 40534, "ELEMENT_SET_NO": 999, "REV_AT_EPOCH": 7785, "BSTAR": 0, "MEAN_MOTION_DOT": 6.6e-07, "MEAN_MOTION_DDOT": 0}, "tle": {"line1": "1 40534U 15013A   25335.12197035  .00000066  00000+0  00000+0 0  9992", "line2": "2 40534  53.1998 212.3715 0106539  38.1920 322.6465  2.00563184 77855"}}, "geometry": {"type": "Point", "coordinates": [47.20121357677574, -18.967026593863807]}}, {"type": "Feature", "properties": {"norad_id": 40544, "name": "GSAT0203 (GALILEO 7)", "group": "gnss", "lat": 47.95624611053591, "lon": 120.4968916684319, "alt_km": 23233.05609260079, "timestamp": "2025-12-02T21:34:01.514085+00:00", "meta": {"OBJECT_NAME": "GSAT0203 (GALILEO 7)", "OBJECT_ID": "2015-017A", "EPOCH": "2025-12-02T02:53:32.217792", "MEAN_MOTION": 1.70475823, "ECCENTRICITY": 0.00065177, "INCLINATION": 56.8491, "RA_OF_ASC_NODE": 346.9701, "ARG_OF_PERICENTER": 267.4937, "MEAN_ANOMALY": 92.4718, "EPHEMERIS_TYPE": 0, "CLASSIFICATION_TYPE": "U", "NORAD_CAT_ID": 40544, "ELEMENT_SET_NO": 999, "REV_AT_EPOCH": 6584, "BSTAR": 0, "MEAN_MOTION_DOT": -6.2e-07, "MEAN_MOTION_DDOT": 0}, "tle": {"line1": "1 40544U 15017A   25336.12051178 -.00000062  00000+0  00000+0 0  9992", "line2": "2 40544  56.8491 346.9701 0006517 267.4937  92.4718  1.70475823 65840"}}, "geometry": {"type": "Point", "coordinates": [120.4968916684319, 47.95624611053591]}}, {"type": "Feature", "properties": {"norad_id": 40545, "name": "GSAT0204 (GALILEO 8)", "group": "gnss", "lat": -31.96371944050206, "lon": -37.09428210095822, "alt_km": 23216.970416656834, "timestamp": "2025-12-02T21:34:01.514096+00:00", "meta": {"OBJECT_NAME": "GSAT0204 (GALILEO 8)", "OBJECT_ID": "2015-017B", "EPOCH": "2025-12-01T18:56:42.196992", "MEAN_MOTION": 1.70475405, "ECCENTRICITY": 0.00062658, "INCLINATION": 56.854, "RA_OF_ASC_NODE": 346.9967, "ARG_OF_PERICENTER": 260.0885, "MEAN_ANOMALY": 99.8817, "EPHEMERIS_TYPE": 0, "CLASSIFICATION_TYPE": "U", "NORAD_CAT_ID": 40545, "ELEMENT_SET_NO": 999, "REV_AT_EPOCH": 2888, "BSTAR": 0, "MEAN_MOTION_DOT": -6.1e-07, "MEAN_MOTION_DDOT": 0}, "tle": {"line1": "1 40545U 15017B   25335.78937728 -.00000061  00000+0  00000+0 0  9997", "line2": "2 40545  56.8540 346.9967 0006265 260.0885  99.8817  1.70475405 28881"}}, "geometry": {"type": "Point", "coordinates": [-37.09428210095822, -31.96371944050206]}}, {"type": "Feature", "properties": {"norad_id": 40730, "name": "GPS BIIF-10 (PRN 08)", "group": "gnss", "lat": 54.10920287533996, "lon": 1.7873318004217502, "alt_km": 20033.645495775643, "timestamp": "2025-12-02T21:34:01.514108+00:00", "meta": {"OBJECT_NAME": "GPS BIIF-10 (PRN 08)", "OBJECT_ID": "2015-033A", "EPOCH": "2025-12-02T06:43:54.108768", "MEAN_MOTION": 2.00566042, "ECCENTRICITY": 0.0110309, "INCLINATION": 54.1399, "RA_OF_ASC_NODE": 275.2033, "ARG_OF_PERICENTER": 26.5495, "MEAN_ANOMALY": 334.0087, "EPHEMERIS_TYPE": 0, "CLASSIFICATION_TYPE": "U", "NORAD_CAT_ID": 40730, "ELEMENT_SET_NO": 999, "REV_AT_EPOCH": 7604, "BSTAR": 0, "MEAN_MOTION_DOT": -3.8e-07, "MEAN_MOTION_DDOT": 0}, "tle": {"line1": "1 40730U 15033A   25336.28048737 -.00000038  00000+0  00000+0 0  9994", "line2": "2 40730  54.1399 275.2033 0110309  26.5495 334.0087  2.00566042 76041"}}, "geometry": {"type": "Point", "coordinates": [1.7873318004217502, 54.10920287533996]}}, {"type": "Feature", "properties": {"norad_id": 40748, "name": "BEIDOU-3S M2S (C58)", "group": "gnss", "lat": 48.808242493150466, "lon": 1.810400779417845, "alt_km": 21555.171472946167, "timestamp": "2025-12-02T21:34:01.514119+00:00", "meta": {"OBJECT_NAME": "BEIDOU-3S M2S (C58)", "OBJECT_ID": "2015-037A", "EPOCH": "2025-12-01T04:31:01.292160", "MEAN_MOTION": 1.86229002, "ECCENTRICITY": 0.0012493, "INCLINATION": 55.0491, "RA_OF_ASC_NODE": 308.8604, "ARG_OF_PERICENTER": 267.0141, "MEAN_ANOMALY": 92.8367, "EPHEMERIS_TYPE": 0, "CLASSIFICATION_TYPE": "U", "NORAD_CAT_ID": 40748, "ELEMENT_SET_NO": 999, "REV_AT_EPOCH": 7043, "BSTAR": 0, "MEAN_MOTION_DOT": -5.6e-07, "MEAN_MOTION_DDOT": 0}, "tle": {"line1": "1 40748U 15037A   25335.18820940 -.00000056  00000+0  00000+0 0  9999", "line2": "2 40748  55.0491 308.8604 0012493 267.0141  92.8367  1.86229002 70437"}}, "geometry": {"type": "Point", "coordinates": [1.810400779417845, 48.808242493150466]}}, {"type": "Feature", "properties": {"norad_id": 40749, "name": "BEIDOU-3S M1S (C57)", "group": "gnss", "lat": -55.00632777395641, "lon": -138.57106097396692, "alt_km": 21530.523575418763, "timestamp": "2025-12-02T21:34:01.514131+00:00", "meta": {"OBJECT_NAME": "BEIDOU-3S M1S (C57)", "OBJECT_ID": "2015-037B", "EPOCH": "2025-11-26T01:13:29.678016", "MEAN_MOTION": 1.8625392, "ECCENTRICITY": 0.00032681, "INCLINATION": 55.0504, "RA_OF_ASC_NODE": 309.0266, "ARG_OF_PERICENTER": 354.4635, "MEAN_ANOMALY": 5.5327, "EPHEMERIS_TYPE": 0, "CLASSIFICATION_TYPE": "U", "NORAD_CAT_ID": 40749, "ELEMENT_SET_NO": 999, "REV_AT_EPOCH": 7034, "BSTAR": 0, "MEAN_MOTION_DOT": -4e-07, "MEAN_MOTION_DDOT": 0}, "tle": {"line1": "1 40749U 15037B   25330.05103794 -.00000040  00000+0  00000+0 0  9995", "line2": "2 40749  55.0504 309.0266 0003268 354.4635   5.5327  1.86253920 70342"}}, "geometry": {"type": "Point", "coordinates": [-138.57106097396692, -55.00632777395641]}}, {"type": "Feature", "properties": {"norad_id": 40889, "name": "GSAT0205 (GALILEO 9)", "group": "gnss", "lat": 52.98115983968509, "lon": -21.024916183320432, "alt_km": 23208.707543887715, "timestamp": "2025-12-02T21:34:01.514143+00:00", "meta": {"OBJECT_NAME": "GSAT0205 (GALILEO 9)", "OBJECT_ID": "2015-045A", "EPOCH": "2025-12-02T03:27:57.507840", "MEAN_MOTION": 1.70472886, "ECCENTRICITY": 0.0005835, "INCLINATION": 55.0073, "RA_OF_ASC_NODE": 227.0512, "ARG_OF_PERICENTER": 38.3993, "MEAN_ANOMALY": 321.7247, "EPHEMERIS_TYPE": 0, "CLASSIFICATION_TYPE": "U", "NORAD_CAT_ID": 40889, "ELEMENT_SET_NO": 999, "REV_AT_EPOCH": 6365, "BSTAR": 0, "MEAN_MOTION_DOT": 3.5e-07, "MEAN_MOTION_DDOT": 0}, "tle": {"line1": "1 40889U 15045A   25336.14441560  .00000035  00000+0  00000+0 0  9994", "line2": "2 40889  55.0073 227.0512 0005835  38.3993 321.7247  1.70472886 63655"}}, "geometry": {"type": "Point", "coordinates": [-21.024916183320432, 52.98115983968509]}}, {"type": "Feature", "properties": {"norad_id": 40890, "name": "GSAT0206 (GALILEO 10)", "group": "gnss", "lat": -26.157602147166067, "lon": -153.06548593988987, "alt_km": 23221.04831070703, "timestamp": "2025-12-02T21:34:01.514154+00:00", "meta": {"OBJECT_NAME": "GSAT0206 (GALILEO 10)", "OBJECT_ID": "2015-045B", "EPOCH": "2025-12-01T18:40:58.746144", "MEAN_MOTION": 1.70473031, "ECCENTRICITY": 0.0003438, "INCLINATION": 55.0064, "RA_OF_ASC_NODE": 227.0564, "ARG_OF_PERICENTER": 30.2471, "MEAN_ANOMALY": 329.8532, "EPHEMERIS_TYPE": 0, "CLASSIFICATION_TYPE": "U", "NORAD_CAT_ID": 40890, "ELEMENT_SET_NO": 999, "REV_AT_EPOCH": 6367, "BSTAR": 0, "MEAN_MOTION_DOT": 3.4e-07, "MEAN_MOTION_DDOT": 0}, "tle": {"line1": "1 40890U 15045B   25335.77845771  .00000034  00000+0  00000+0 0  9995", "line2": "2 40890  55.0064 227.0564 0003438  30.2471 329.8532  1.70473031 63674"}}, "geometry": {"type": "Point", "coordinates": [-153.06548593988987, -26.157602147166067]}}, {"type": "Feature", "properties": {"norad_id": 40938, "name": "BEIDOU-3S IGSO-2S (C56)", "group": "gnss", "lat": -36.26419824323368, "lon": 119.76351026103603, "alt_km": 35599.40922602535, "timestamp": "2025-12-02T21:34:01.514165+00:00", "meta": {"OBJECT_NAME": "BEIDOU-3S IGSO-2S (C56)", "OBJECT_ID": "2015-053A", "EPOCH": "2025-11-30T14:22:32.938176", "MEAN_MOTION": 1.00272475, "ECCENTRICITY": 0.0061056, "INCLINATION": 49.5325, "RA_OF_ASC_NODE": 261.1514, "ARG_OF_PERICENTER": 188.8099, "MEAN_ANOMALY": 291.5463, "EPHEMERIS_TYPE": 0, "CLASSIFICATION_TYPE": "U", "NORAD_CAT_ID": 40938, "ELEMENT_SET_NO": 999, "REV_AT_EPOCH": 3736, "BSTAR": 0, "MEAN_MOTION_DOT": -1.61e-06, "MEAN_MOTION_DDOT": 0}, "tle": {"line1": "1 40938U 15053A   25334.59899234 -.00000161  00000+0  00000+0 0  9991", "line2": "2 40938  49.5325 261.1514 0061056 188.8099 291.5463  1.00272475 37362"}}, "geometry": {"type": "Point", "coordinates": [119.76351026103603, -36.26419824323368]}}]}